{
  "type": "FeatureCollection",
  "features": [
    {
      "type": "Feature",
      "properties": {
        "norad_id": 33901,
        "name": "COSMOS 2251 DEB",
        "group": "cosmos-2251-debris",
        "lat": 6.036799765024603,
        "lon": -131.24166599777809,
        "alt_km": 498.22604993357254,
        "timestamp": "2025-12-12T03:50:52.811256+00:00",
        "meta_object_name": "COSMOS 2251 DEB",
        "meta_object_id": "1993-036DE",
        "meta_epoch": "2025-12-11T06:29:32.083872",
        "meta_mean_motion": 15.15676809,
        "meta_eccentricity": 0.0032195,
        "meta_inclination": 73.7736,
        "meta_ra_of_asc_node": 52.4052,
        "meta_arg_of_pericenter": 184.3689,
        "meta_mean_anomaly": 175.7229,
        "meta_ephemeris_type": 0,
        "meta_classification_type": "U",
        "meta_norad_cat_id": 33901,
        "meta_element_set_no": 999,
        "meta_rev_at_epoch": 89491,
        "meta_bstar": 0.0063789718,
        "meta_mean_motion_dot": 0.00125087,
        "meta_mean_motion_ddot": 0,
        "tle_line1": "1 33901U 93036DE  25345.27051023  .00125087  00000+0  63790-2 0  9995",
        "tle_line2": "2 33901  73.7736  52.4052 0032195 184.3689 175.7229 15.15676809894910"
      },
      "geometry": {
        "type": "Point",
        "coordinates": [
          -131.24166599777809,
          6.036799765024603
        ]
      }
    },
    {
      "type": "Feature",
      "properties": {
        "norad_id": 33905,
        "name": "COSMOS 2251 DEB",
        "group": "cosmos-2251-debris",
        "lat": 54.55126734839567,
        "lon": -18.32817571494167,
        "alt_km": 804.4683263921252,
        "timestamp": "2025-12-12T03:50:52.811266+00:00",
        "meta_object_name": "COSMOS 2251 DEB",
        "meta_object_id": "1993-036DJ",
        "meta_epoch": "2025-12-11T09:45:34.507296",
        "meta_mean_motion": 14.35379757,
        "meta_eccentricity": 0.00589878,
        "meta_inclination": 73.8875,
        "meta_ra_of_asc_node": 319.1115,
        "meta_arg_of_pericenter": 208.8941,
        "meta_mean_anomaly": 276.4802,
        "meta_ephemeris_type": 0,
        "meta_classification_type": "U",
        "meta_norad_cat_id": 33905,
        "meta_element_set_no": 999,
        "meta_rev_at_epoch": 87668,
        "meta_bstar": 0.0011659112,
        "meta_mean_motion_dot": 3.387e-05,
        "meta_mean_motion_ddot": 0,
        "tle_line1": "1 33905U 93036DJ  25345.40664939  .00003387  00000+0  11659-2 0  9995",
        "tle_line2": "2 33905  73.8875 319.1115 0058987 208.8941 276.4802 14.35379757876685"
      },
      "geometry": {
        "type": "Point",
        "coordinates": [
          -18.32817571494167,
          54.55126734839567
        ]
      }
    },
    {
      "type": "Feature",
      "properties": {
        "norad_id": 33906,
        "name": "COSMOS 2251 DEB",
        "group": "cosmos-2251-debris",
        "lat": -69.86293424795772,
        "lon": -166.0791435996774,
        "alt_km": 711.4800318653433,
        "timestamp": "2025-12-12T03:50:52.811276+00:00",
        "meta_object_name": "COSMOS 2251 DEB",
        "meta_object_id": "1993-036DK",
        "meta_epoch": "2025-12-10T22:47:43.500192",
        "meta_mean_motion": 14.57035639,
        "meta_eccentricity": 0.0036626,
        "meta_inclination": 74.031,
        "meta_ra_of_asc_node": 324.8749,
        "meta_arg_of_pericenter": 354.5854,
        "meta_mean_anomaly": 36.316,
        "meta_ephemeris_type": 0,
        "meta_classification_type": "U",
        "meta_norad_cat_id": 33906,
        "meta_element_set_no": 999,
        "meta_rev_at_epoch": 87982,
        "meta_bstar": 0.0031774,
        "meta_mean_motion_dot": 0.0001443,
        "meta_mean_motion_ddot": 0,
        "tle_line1": "1 33906U 93036DK  25344.94980903  .00014430  00000+0  31774-2 0  9997",
        "tle_line2": "2 33906  74.0310 324.8749 0036626 354.5854  36.3160 14.57035639879828"
      },
      "geometry": {
        "type": "Point",
        "coordinates": [
          -166.0791435996774,
          -69.86293424795772
        ]
      }
    },
    {
      "type": "Feature",
      "properties": {
        "norad_id": 33907,
        "name": "COSMOS 2251 DEB",
        "group": "cosmos-2251-debris",
        "lat": -67.81160949960655,
        "lon": -9.741724515854841,
        "alt_km": 874.6790485730962,
        "timestamp": "2025-12-12T03:50:52.811286+00:00",
        "meta_object_name": "COSMOS 2251 DEB",
        "meta_object_id": "1993-036DL",
        "meta_epoch": "2025-12-10T10:17:45.557664",
        "meta_mean_motion": 14.30470945,
        "meta_eccentricity": 0.01124102,
        "meta_inclination": 74.0703,
        "meta_ra_of_asc_node": 37.8483,
        "meta_arg_of_pericenter": 94.0425,
        "meta_mean_anomaly": 279.6363,
        "meta_ephemeris_type": 0,
        "meta_classification_type": "U",
        "meta_norad_cat_id": 33907,
        "meta_element_set_no": 999,
        "meta_rev_at_epoch": 86547,
        "meta_bstar": 0.0023554643,
        "meta_mean_motion_dot": 6.551e-05,
        "meta_mean_motion_ddot": 0,
        "tle_line1": "1 33907U 93036DL  25344.42899951  .00006551  00000+0  23555-2 0  9996",
        "tle_line2": "2 33907  74.0703  37.8483 0112410  94.0425 279.6363 14.30470945865474"
      },
      "geometry": {
        "type": "Point",
        "coordinates": [
          -9.741724515854841,
          -67.81160949960655
        ]
      }
    },
    {
      "type": "Feature",
      "properties": {
        "norad_id": 33908,
        "name": "COSMOS 2251 DEB",
        "group": "cosmos-2251-debris",
        "lat": 5.562865534455665,
        "lon": -151.5871393656885,
        "alt_km": 983.8259386879745,
        "timestamp": "2025-12-12T03:50:52.811297+00:00",
        "meta_object_name": "COSMOS 2251 DEB",
        "meta_object_id": "1993-036DM",
        "meta_epoch": "2025-12-11T14:10:17.205024",
        "meta_mean_motion": 14.07325228,
        "meta_eccentricity": 0.02231844,
        "meta_inclination": 73.8377,
        "meta_ra_of_asc_node": 207.8051,
        "meta_arg_of_pericenter": 231.5515,
        "meta_mean_anomaly": 126.5408,
        "meta_ephemeris_type": 0,
        "meta_classification_type": "U",
        "meta_norad_cat_id": 33908,
        "meta_element_set_no": 999,
        "meta_rev_at_epoch": 85457,
        "meta_bstar": 0.0027361801,
        "meta_mean_motion_dot": 5.744e-05,
        "meta_mean_motion_ddot": 0,
        "tle_line1": "1 33908U 93036DM  25345.59047691  .00005744  00000+0  27362-2 0  9995",
        "tle_line2": "2 33908  73.8377 207.8051 0223184 231.5515 126.5408 14.07325228854574"
      },
      "geometry": {
        "type": "Point",
        "coordinates": [
          -151.5871393656885,
          5.562865534455665
        ]
      }
    },
    {
      "type": "Feature",
      "properties": {
        "norad_id": 33911,
        "name": "COSMOS 2251 DEB",
        "group": "cosmos-2251-debris",
        "lat": -7.515780597603106,
        "lon": 160.82575422680324,
        "alt_km": 652.9359535278609,
        "timestamp": "2025-12-12T03:50:52.811307+00:00",
        "meta_object_name": "COSMOS 2251 DEB",
        "meta_object_id": "1993-036DQ",
        "meta_epoch": "2025-12-11T11:44:22.098624",
        "meta_mean_motion": 14.74796622,
        "meta_eccentricity": 0.00142629,
        "meta_inclination": 74.0904,
        "meta_ra_of_asc_node": 164.2887,
        "meta_arg_of_pericenter": 105.3404,
        "meta_mean_anomaly": 285.0385,
        "meta_ephemeris_type": 0,
        "meta_classification_type": "U",
        "meta_norad_cat_id": 33911,
        "meta_element_set_no": 999,
        "meta_rev_at_epoch": 88626,
        "meta_bstar": 0.0039923309,
        "meta_mean_motion_dot": 0.00026852,
        "meta_mean_motion_ddot": 0,
        "tle_line1": "1 33911U 93036DQ  25345.48914466  .00026852  00000+0  39923-2 0  9999",
        "tle_line2": "2 33911  74.0904 164.2887 0014262 105.3404 285.0385 14.74796622886260"
      },
      "geometry": {
        "type": "Point",
        "coordinates": [
          160.82575422680324,
          -7.515780597603106
        ]
      }
    },
    {
      "type": "Feature",
      "properties": {
        "norad_id": 33912,
        "name": "COSMOS 2251 DEB",
        "group": "cosmos-2251-debris",
        "lat": -66.79890456911117,
        "lon": 148.9074817378433,
        "alt_km": 718.6131083435839,
        "timestamp": "2025-12-12T03:50:52.811317+00:00",
        "meta_object_name": "COSMOS 2251 DEB",
        "meta_object_id": "1993-036DR",
        "meta_epoch": "2025-12-11T13:25:58.690848",
        "meta_mean_motion": 14.51883266,
        "meta_eccentricity": 0.0011474,
        "meta_inclination": 74.0335,
        "meta_ra_of_asc_node": 191.9478,
        "meta_arg_of_pericenter": 270.8108,
        "meta_mean_anomaly": 118.1693,
        "meta_ephemeris_type": 0,
        "meta_classification_type": "U",
        "meta_norad_cat_id": 33912,
        "meta_element_set_no": 999,
        "meta_rev_at_epoch": 88416,
        "meta_bstar": 0.0010411215,
        "meta_mean_motion_dot": 4.174e-05,
        "meta_mean_motion_ddot": 0,
        "tle_line1": "1 33912U 93036DR  25345.55970707  .00004174  00000+0  10411-2 0  9992",
        "tle_line2": "2 33912  74.0335 191.9478 0011474 270.8108 118.1693 14.51883266884164"
      },
      "geometry": {
        "type": "Point",
        "coordinates": [
          148.9074817378433,
          -66.79890456911117
        ]
      }
    }
  ]
}